EUTELSAT 115 WEST B     
1 40425U 15010B   21108.88914462 -.00000022  00000-0  00000-0 0  9991
2 40425   0.0123  89.8197 0000201   2.5911 319.9854  1.00269034 22497
EXPRESS-AM7             
1 40505U 15012A   21109.20711944  .00000153  00000-0  00000+0 0  9992
2 40505   0.0100 143.7940 0002990 228.4589 309.8383  1.00274262 22454
IRNSS-1D                
1 40547U 15018A   21108.84702306 -.00000286  00000-0  00000+0 0  9993
2 40547  28.6285 272.2181 0020615 177.2592 174.3649  1.00274026 22339
BEIDOU 17               
1 40549U 15019A   21109.07688022 -.00000156  00000-0  00000+0 0  9996
2 40549  52.5864 317.6746 0036795 186.8166 187.2326  1.00279107 22183
THOR 7                  
1 40613U 15022A   21108.91141431 -.00000006  00000-0  00000-0 0  9997
2 40613   0.0288 124.1234 0002554 256.9111 153.6687  1.00271125 21921
TURKMENALEM52E/MONACOSAT
1 40617U 15023A   21109.06597177  .00000106  00000-0  00000+0 0  9990
2 40617   0.0344  82.2384 0003014 304.2827 256.6313  1.00273572 21930
DIRECTV 15              
1 40663U 15026A   21109.47168792 -.00000101  00000-0  00000+0 0  9992
2 40663   0.0200 124.1619 0000506  74.0130  76.5744  1.00270008 21636
SKY MEXICO-1            
1 40664U 15026B   21109.21155354 -.00000232  00000-0  00000+0 0  9990
2 40664   0.0343  73.4028 0002711 335.5380 155.9760  1.00271207 21639
METEOSAT-11 (MSG-4)     
1 40732U 15034A   21108.84029250  .00000000  00000-0  00000-0 0  9991
2 40732   0.1409 229.0323 0000452 238.0856  42.4561  1.00277639 21118
STAR ONE C4             
1 40733U 15034B   21109.21724699 -.00000263  00000-0  00000+0 0  9994
2 40733   0.0452  56.4952 0002816 327.1725 192.0821  1.00271982 21113
WGS F7 (USA 263)        
1 40746U 15036A   21109.44946071  .00000019  00000-0  00000+0 0  9993
2 40746   0.0124 234.4801 0000157 295.8795  14.2177  1.00270580 20973
INTELSAT 34 (IS-34)     
1 40874U 15039A   21109.45749681 -.00000284  00000-0  00000+0 0  9992
2 40874   0.0169 250.8958 0000870 351.7596  74.3369  1.00269885 20710
EUTELSAT 8 WEST B       
1 40875U 15039B   21109.34111376 -.00000064  00000-0  00000+0 0  9991
2 40875   0.0675  10.0891 0005238  39.2123 273.1471  1.00271733 20787
GSAT-6                  
1 40880U 15041A   21108.93938189 -.00000158  00000-0  00000-0 0  9998
2 40880   0.0903  98.1900 0002740 285.9565 243.7938  1.00271707 20726
INMARSAT 5-F3           
1 40882U 15042A   21109.44642678  .00000052  00000-0  00000+0 0  9994
2 40882   0.0150 222.3322 0000510  61.5321 264.2083  1.00272012 20653
MUOS-4                  
1 40887U 15044A   21108.85512260 -.00000092  00000-0  00000+0 0  9993
2 40887   2.6960 352.1983 0057952   2.0001 235.8520  1.00272043 20640
TJS-1                   
1 40892U 15046A   21108.94296917 -.00000154  00000-0  00000-0 0  9999
2 40892   0.0768 292.8401 0000853  67.8634 340.9880  1.00275697 20643
EXPRESS-AM8             
1 40895U 15048A   21108.91365218 -.00000109  00000-0  00000-0 0  9992
2 40895   0.0156 305.8368 0000239 161.3874  54.9301  1.00272156 20476
BEIDOU 20               
1 40938U 15053A   21109.43332208 -.00000098  00000-0  00000+0 0  9993
2 40938  52.1560 280.7318 0045087 189.3022 346.5484  1.00295861 20449
SKY MUSTER 1 (NBN1A)    
1 40940U 15054A   21108.94000316 -.00000276  00000-0  00000+0 0  9992
2 40940   0.0154 262.1705 0001605 112.1462 311.5983  1.00271690 20346
ARSAT 2                 
1 40941U 15054B   21109.20987815 -.00000223  00000-0  00000+0 0  9993
2 40941   0.0191 268.6965 0001609 109.1151 184.2757  1.00272133 20417
MORELOS 3               
1 40946U 15056A   21108.67414959 -.00000043  00000-0  00000-0 0  9995
2 40946   4.3435 330.2467 0001633 356.0651  10.2663  1.00272691 20387
APSTAR 9                
1 40982U 15059A   21108.94035208 -.00000264  00000-0  00000-0 0  9999
2 40982   0.0510  91.0484 0002373  12.3719 224.3850  1.00271384 20243
TURKSAT 4B              
1 40984U 15060A   21109.13733073  .00000117  00000-0  00000+0 0  9995
2 40984   0.0260 101.5339 0002168 268.4019 296.9514  1.00271063 20204
CHINASAT 2C (ZX 2C)     
1 41021U 15063A   21108.93267532 -.00000322  00000-0  00000+0 0  9999
2 41021   0.0363 303.2095 0002660 113.9354 229.2721  1.00275212 20102
GSAT-15                 
1 41028U 15065A   21109.44129529 -.00000256  00000-0  00000+0 0  9994
2 41028   0.1116  96.6933 0002854 310.0858  53.3549  1.00273265 19966
BADR-7 (ARABSAT-6B)     
1 41029U 15065B   21108.87073931  .00000147  00000-0  00000+0 0  9994
2 41029   0.0411 252.9915 0002844   2.8985 290.7629  1.00271110 20007
LAOSAT 1                
1 41034U 15067A   21109.45118753 -.00000342  00000-0  00000+0 0  9997
2 41034   0.0461  62.1866 0001964 298.7999 137.6895  1.00268700 19943
TELSTAR 12V             
1 41036U 15068A   21108.83732649 -.00000116  00000-0  00000-0 0  9997
2 41036   0.0133 176.1727 0002155 202.5109 114.9309  1.00271886 19725
CHINASAT 1C (ZX 1C)     
1 41103U 15073A   21109.16160356 -.00000146  00000-0  00000+0 0  9997
2 41103   2.3491  89.4710 0001993 315.0943 302.4430  1.00270584 19751
ELEKTRO-L 2             
1 41105U 15074A   21108.90920887 -.00000111  00000-0  00000-0 0  9997
2 41105   1.9363  93.1735 0000662  22.4304  44.5170  1.00272220 19616
COSMOS 2513             
1 41121U 15075A   21108.93938189 -.00000136  00000-0  00000-0 0  9990
2 41121   0.0497 103.8941 0003255 314.7144 207.0850  1.00271184 19620
EXPRESS-AMU1            
1 41191U 15082A   21108.86021446  .00000158  00000-0  00000+0 0  9998
2 41191   0.0179 244.9972 0002788 122.4868 185.4776  1.00270282 19604
GAOFEN 4                
1 41194U 15083A   21109.65091025 -.00000333  00000-0  00000+0 0  9996
2 41194   0.0979 105.8250 0005063  39.3258  42.8400  1.00271903 19596
BELINTERSAT-1           
1 41238U 16001A   21109.42477296  .00000109  00000-0  00000+0 0  9999
2 41238   0.0525  70.7884 0000845  72.3741 268.9728  1.00270943 19353
IRNSS-1E                
1 41241U 16003A   21109.36501639 -.00000275  00000-0  00000+0 0  9992
2 41241  29.0498  91.2948 0018453 189.3787 170.0683  1.00266457 19290
EUTELSAT 9B             
1 41310U 16005A   21109.34451597  .00000064  00000-0  00000+0 0  9991
2 41310   0.1040  82.6802 0003985 242.5173  15.4911  1.00273511 19215
SES-9                   
1 41380U 16013A   21108.83514333 -.00000343  00000-0  00000-0 0  9990
2 41380   0.0234 273.6815 0001702 144.5658 197.8571  1.00271438 18533
EUTELSAT 65 WEST A      
1 41382U 16014A   21108.82729437 -.00000274  00000-0  00000-0 0  9998
2 41382   0.0552  26.6004 0001864 348.3458  64.8378  1.00273615 18644
IRNSS-1F                
1 41384U 16015A   21109.13384130  .00000162  00000-0  00000+0 0  9997
2 41384   1.9514 193.2911 0023334 192.0364 262.7633  1.00269089 18775
BEIDOU IGSO-6           
1 41434U 16021A   21108.80674137 -.00000145  00000-0  00000-0 0  9995
2 41434  57.4808  57.2653 0039304 217.1255 319.8351  1.00281447 18578
IRNSS-1G                
1 41469U 16027A   21109.45118753 -.00000332  00000-0  00000+0 0  9995
2 41469   1.9402 196.6601 0006056 246.2483  56.8188  1.00273494 18271
JCSAT-2B                
1 41471U 16028A   21108.87099955 -.00000163  00000-0  00000-0 0  9999
2 41471   0.0167 230.5771 0001590 150.6819 293.5066  1.00272014 18213
THAICOM 8               
1 41552U 16031A   21108.93938189 -.00000120  00000-0  00000-0 0  9994
2 41552   0.0848  73.9563 0004395 318.1223 231.9108  1.00272643 17819
INTELSAT 31 (IS-31)     
1 41581U 16035A   21109.48447948 -.00000149  00000-0  00000+0 0  9999
2 41581   0.0178 244.8773 0002631 336.4854  65.7958  1.00271877 17794
BEIDOU-2 G7             
1 41586U 16037A   21109.43654980 -.00000352  00000-0  00000+0 0  9993
2 41586   1.5760  65.4416 0009368  11.6444  38.3523  1.00275358 17886
ABS-2A (MONGOLSAT-1)    
1 41588U 16038A   21108.93243743 -.00000081  00000-0  00000+0 0  9990
2 41588   0.0167 242.4490 0002169  76.4983 298.7138  1.00268292 17806
EUTELSAT 117 WEST B     
1 41589U 16038B   21108.88870844 -.00000009  00000-0  00000-0 0  9994
2 41589   0.0122  89.7836 0000392   1.9164 318.4428  1.00269673 17765
BRISAT                  
1 41591U 16039A   21109.42573372 -.00000195  00000-0  00000+0 0  9990
2 41591   0.0159 251.1333 0002109 126.8059 133.5738  1.00271012 17741
ECHOSTAR 18             
1 41592U 16039B   21108.82807948 -.00000279  00000-0  00000-0 0  9997
2 41592   0.0216 235.2728 0001182 144.3705  64.2576  1.00271098 17722
MUOS-5                  
1 41622U 16041A   21109.47153494 -.00000139  00000-0  00000+0 0  9990
2 41622   6.5835 304.5273 0196644 224.6262 103.3870  1.00272774 18160
TIANTONG-1 1            
1 41725U 16048A   21109.19704561 -.00000316  00000-0  00000+0 0  9994
2 41725   2.6092 341.3813 0005762  56.5659 341.7833  1.00266239 17364
JCSAT-16                
1 41729U 16050A   21108.83660427 -.00000354  00000-0  00000+0 0  9995
2 41729   0.0611  84.5606 0002705 223.6312 324.1691  1.00273141 17154
USA 270                 
1 41744U 16052A   21106.05810215 -.00000190  00000-0  00000+0 0  9996
2 41744   0.1142 110.7260 0005804 174.7623  25.8837  1.00273242  9221
USA 271                 
1 41745U 16052B   21106.05818939 -.00000197  00000-0  00000+0 0  9995
2 41745   0.8167  97.2345 0007256 266.1550 308.8571  1.00271950  8993
INTELSAT 36 (IS-36)     
1 41747U 16053A   21108.89790404 -.00000022  00000-0  00000-0 0  9996
2 41747   0.0296 307.1290 0001156  38.2586 253.5795  1.00268144 17065
INTELSAT 33E (IS-33E)   
1 41748U 16053B   21108.91215567  .00000051  00000-0  00000-0 0  9993
2 41748   0.0294 330.5903 0001500  56.5109 208.5156  1.00274125 17340
INSAT-3DR               
1 41752U 16054A   21108.85503537 -.00000075  00000-0  00000-0 0  9996
2 41752   0.1320  96.1220 0010837 182.9457 309.9251  1.00273160 16907
GSAT-18                 
1 41793U 16060A   21109.42930924 -.00000075  00000-0  00000+0 0  9995
2 41793   0.1063  97.6701 0002051 280.9724  57.6531  1.00272009 16630
